OBJECT_NAME,OBJECT_ID,EPOCH,MEAN_MOTION,ECCENTRICITY,INCLINATION,RA_OF_ASC_NODE,ARG_OF_PERICENTER,MEAN_ANOMALY,EPHEMERIS_TYPE,CLASSIFICATION_TYPE,NORAD_CAT_ID,ELEMENT_SET_NO,REV_AT_EPOCH,BSTAR,MEAN_MOTION_DOT,MEAN_MOTION_DDOT
SL-8 R/B,1985-006B,2026-07-20T11:25:28.720704,14.37847114,.00192322,74.0456,16.8020,259.1136,130.9167,0,U,15483,999,17311,.56233222E-4,.143E-5,0
SL-12 R/B(2),1985-042D,2026-07-20T08:59:50.868384,14.22011666,.00373639,71.1071,167.3982,278.5983,194.5045,0,U,15772,999,13325,.35944081E-4,.32E-6,0
SL-14 R/B,1985-069B,2026-07-20T13:21:02.752704,14.86537178,.00202733,82.5255,259.9841,110.7375,249.6017,0,U,15945,999,19257,.20029748E-4,.203E-5,0
SL-16 R/B,1985-097B,2026-07-20T07:17:58.466688,14.16615301,.00058571,71.0005,221.3563,41.1769,329.6317,0,U,16182,999,10601,.13079479E-3,.213E-5,0
SL-14 R/B,1986-006B,2026-07-20T13:31:32.059200,14.86970661,.00759316,82.5285,134.7065,190.9199,169.0375,0,U,16496,999,16895,.24988537E-4,.263E-5,0
COSMOS 1743,1986-034A,2026-07-20T07:42:30.485952,15.70002746,.00055534,82.5269,293.4233,160.9665,199.1806,0,U,16719,999,20098,.32287925E-3,.38919E-3,0
SL-14 R/B,1986-046B,2026-07-20T13:24:51.635808,14.85692961,.00239892,82.4841,314.6433,145.7956,214.4812,0,U,16792,999,14613,.25804174E-4,.25E-5,0
SL-14 R/B,1986-055B,2026-07-20T11:23:30.577344,14.85742372,.00173955,82.5208,1.8320,251.2774,127.1174,0,U,16882,999,13908,.24569021E-4,.238E-5,0
AJISAI (EGS),1986-061A,2026-07-20T15:09:06.505920,12.44516687,.00110759,50.0104,44.5555,265.7718,199.0484,0,U,16908,999,48455,-.51229636E-4,-.105E-5,0
SL-14 R/B,1987-024B,2026-07-20T08:12:33.390432,14.86233984,.00183103,82.5303,328.0870,176.5715,183.5631,0,U,17567,999,10783,.26689093E-4,.26E-5,0
COSMOS 1833,1987-027A,2026-07-20T07:24:06.896160,14.13067609,.00246194,70.9213,47.2528,0.5466,359.5677,0,U,17589,999,2905,.23944551E-4,-.3E-7,0
SL-16 R/B,1987-027B,2026-07-20T09:22:31.968192,14.17175582,.00072051,71.0039,356.8569,276.3307,83.6996,0,U,17590,999,3414,.11370851E-3,.181E-5,0
SL-14 R/B,1987-038B,2026-07-20T09:43:41.502144,14.85463590,.00208647,82.5017,171.7829,86.2709,274.0892,0,U,17912,999,9893,.27022406E-4,.259E-5,0
COSMOS 1844,1987-041A,2026-07-20T11:36:53.250624,14.14581310,.00309623,70.9000,114.0750,187.6805,172.3847,0,U,17973,999,2236,-.4449208E-5,-.57E-6,0
SL-14 R/B,1987-055B,2026-07-20T03:45:40.392864,14.85728706,.00191546,82.4968,224.1472,297.4945,62.4324,0,U,18153,999,8960,.18583915E-4,.186E-5,0
COSMOS 1867,1987-060A,2026-07-20T12:38:27.956544,14.31518819,.0017282,65.0115,294.6892,281.9381,77.9765,0,U,18187,999,3895,.14221224E-4,-.62E-6,0
SL-14 R/B,1988-001B,2026-07-20T02:14:58.430976,14.85628489,.00185719,82.5116,70.8128,155.9788,204.2299,0,U,18749,999,6168,.19460337E-4,.194E-5,0
COSMOS 1933,1988-020A,2026-07-20T05:49:00.831072,15.18909192,.00059575,82.5141,119.6993,94.4924,265.6991,0,U,18958,999,7034,.10200594E-3,.216E-4,0
SL-3 R/B,1988-032B,2026-07-20T12:47:28.978656,15.21055261,.00269039,97.5281,184.5488,127.9708,232.3963,0,U,19046,999,7229,.10683078E-3,.2323E-4,0
SL-16 R/B,1988-039B,2026-07-20T07:24:13.961088,14.19631862,.00203379,71.0144,148.1232,141.0738,219.1856,0,U,19120,999,97720,.61400517E-4,.82E-6,0
COSMOS 1953,1988-050A,2026-07-20T12:00:04.220640,15.30380447,.00110409,82.5070,24.4255,22.5569,337.6154,0,U,19210,999,5808,.14696327E-3,.4358E-4,0
SL-8 R/B,1988-053B,2026-07-20T08:47:48.275808,14.38979694,.00199242,74.0452,227.8959,11.8837,359.4171,0,U,19257,999,99568,.40871712E-4,.1E-5,0
COSMOS 1975,1988-093A,2026-07-20T09:19:26.933952,15.29703619,.00123304,82.5206,344.2932,66.2594,293.9938,0,U,19573,999,3968,.15515981E-3,.4507E-4,0
SL-14 R/B,1988-093B,2026-07-20T11:10:22.846080,14.85761862,.00195935,82.5310,277.4045,322.1794,48.0152,0,U,19574,999,2073,.18376249E-4,.184E-5,0
SL-16 R/B,1988-102B,2026-07-20T11:39:42.133248,14.16167475,.00139964,70.9971,232.0743,177.3108,182.8093,0,U,19650,999,94569,.11267668E-3,.175E-5,0
INTERCOSMOS 24,1989-080A,2026-07-19T23:23:59.819424,12.59693092,.11869508,82.6056,18.3021,345.8500,11.1837,0,U,20261,999,68345,.35328484E-4,.131E-5,0
SL-14 R/B,1989-080C,2026-07-20T04:52:16.992480,12.50579061,.12288963,82.5928,88.0938,241.8334,105.3356,0,U,20262,999,67671,.15611103E-4,.56E-6,0
DELTA 1 R/B,1989-089B,2026-07-20T11:08:01.170816,14.50749596,.00705195,97.0638,27.6972,63.6811,297.1609,0,U,20323,999,91498,.41960872E-4,.135E-5,0
ARIANE 40 R/B,1990-005H,2026-07-20T02:54:11.774304,14.39942009,.00105965,98.2940,257.7098,159.7765,200.3846,0,U,20443,999,91186,.37656086E-4,.76E-6,0
DELTA 2 R/B(1),1990-008B,2026-07-20T12:56:44.024352,15.74510790,.00563244,35.6002,11.5985,66.9760,293.6910,0,U,20453,999,94695,.53425392E-3,.9025E-3,0
