SL-8 R/B                
1 15483U 85006B   26201.47602686  .00000143  00000+0  56233-4 0  9990
2 15483  74.0456  16.8020 0019232 259.1136 130.9167 14.37847114173110
SL-12 R/B(2)            
1 15772U 85042D   26201.37489431  .00000032  00000+0  35944-4 0  9994
2 15772  71.1071 167.3982 0037363 278.5983 194.5045 14.22011666133252
SL-14 R/B               
1 15945U 85069B   26201.55628186  .00000203  00000+0  20030-4 0  9997
2 15945  82.5255 259.9841 0020273 110.7375 249.6017 14.86537178192572
SL-16 R/B               
1 16182U 85097B   26201.30414892  .00000213  00000+0  13079-3 0  9997
2 16182  71.0005 221.3563 0005857  41.1769 329.6317 14.16615301106015
SL-14 R/B               
1 16496U 86006B   26201.56356550  .00000263  00000+0  24989-4 0  9998
2 16496  82.5285 134.7065 0075931 190.9199 169.0375 14.86970661168955
COSMOS 1743             
1 16719U 86034A   26201.32118618  .00038919  00000+0  32288-3 0  9991
2 16719  82.5269 293.4233 0005553 160.9665 199.1806 15.70002746200980
SL-14 R/B               
1 16792U 86046B   26201.55893097  .00000250  00000+0  25804-4 0  9995
2 16792  82.4841 314.6433 0023989 145.7956 214.4812 14.85692961146134
SL-14 R/B               
1 16882U 86055B   26201.47465946  .00000238  00000+0  24569-4 0  9997
2 16882  82.5208   1.8320 0017395 251.2774 127.1174 14.85742372139086
AJISAI (EGS)            
1 16908U 86061A   26201.63132530 -.00000105  00000+0 -51230-4 0  9991
2 16908  50.0104  44.5555 0011075 265.7718 199.0484 12.44516687484559
SL-14 R/B               
1 17567U 87024B   26201.34205313  .00000260  00000+0  26689-4 0  9991
2 17567  82.5303 328.0870 0018310 176.5715 183.5631 14.86233984107836
COSMOS 1833             
1 17589U 87027A   26201.30841315 -.00000003  00000+0  23945-4 0  9990
2 17589  70.9213  47.2528 0024619   0.5466 359.5677 14.13067609 29050
SL-16 R/B               
1 17590U 87027B   26201.39064778  .00000181  00000+0  11371-3 0  9996
2 17590  71.0039 356.8569 0007205 276.3307  83.6996 14.17175582 34142
SL-14 R/B               
1 17912U 87038B   26201.40534146  .00000259  00000+0  27022-4 0  9996
2 17912  82.5017 171.7829 0020864  86.2709 274.0892 14.85463590 98938
COSMOS 1844             
1 17973U 87041A   26201.48394966 -.00000057  00000+0 -44492-5 0  9998
2 17973  70.9000 114.0750 0030962 187.6805 172.3847 14.14581310 22361
SL-14 R/B               
1 18153U 87055B   26201.15671751  .00000186  00000+0  18584-4 0  9991
2 18153  82.4968 224.1472 0019154 297.4945  62.4324 14.85728706 89601
COSMOS 1867             
1 18187U 87060A   26201.52671246 -.00000062  00000+0  14221-4 0  9992
2 18187  65.0115 294.6892 0017282 281.9381  77.9765 14.31518819 38954
SL-14 R/B               
1 18749U 88001B   26201.09373184  .00000194  00000+0  19460-4 0  9999
2 18749  82.5116  70.8128 0018571 155.9788 204.2299 14.85628489 61689
COSMOS 1933             
1 18958U 88020A   26201.24237073  .00002160  00000+0  10201-3 0  9993
2 18958  82.5141 119.6993 0005957  94.4924 265.6991 15.18909192 70347
SL-3 R/B                
1 19046U 88032B   26201.53297429  .00002323  00000+0  10683-3 0  9993
2 19046  97.5281 184.5488 0026903 127.9708 232.3963 15.21055261 72292
SL-16 R/B               
1 19120U 88039B   26201.30849492  .00000082  00000+0  61401-4 0  9996
2 19120  71.0144 148.1232 0020337 141.0738 219.1856 14.19631862977200
COSMOS 1953             
1 19210U 88050A   26201.50004885  .00004358  00000+0  14696-3 0  9993
2 19210  82.5070  24.4255 0011040  22.5569 337.6154 15.30380447 58089
SL-8 R/B                
1 19257U 88053B   26201.36653097  .00000100  00000+0  40872-4 0  9993
2 19257  74.0452 227.8959 0019924  11.8837 359.4171 14.38979694995680
COSMOS 1975             
1 19573U 88093A   26201.38850618  .00004507  00000+0  15516-3 0  9999
2 19573  82.5206 344.2932 0012330  66.2594 293.9938 15.29703619 39680
SL-14 R/B               
1 19574U 88093B   26201.46554220  .00000184  00000+0  18376-4 0  9994
2 19574  82.5310 277.4045 0019593 322.1794  48.0152 14.85761862 20731
SL-16 R/B               
1 19650U 88102B   26201.48590432  .00000175  00000+0  11268-3 0  9999
2 19650  70.9971 232.0743 0013996 177.3108 182.8093 14.16167475945698
INTERCOSMOS 24          
1 20261U 89080A   26200.97499791  .00000131  00000+0  35328-4 0  9990
2 20261  82.6056  18.3021 1186950 345.8500  11.1837 12.59693092683453
SL-14 R/B               
1 20262U 89080C   26201.20297445  .00000056  00000+0  15611-4 0  9999
2 20262  82.5928  88.0938 1228896 241.8334 105.3356 12.50579061676711
DELTA 1 R/B             
1 20323U 89089B   26201.46390244  .00000135  00000+0  41961-4 0  9990
2 20323  97.0638  27.6972 0070519  63.6811 297.1609 14.50749596914980
ARIANE 40 R/B           
1 20443U 90005H   26201.12096961  .00000076  00000+0  37656-4 0  9995
2 20443  98.2940 257.7098 0010596 159.7765 200.3846 14.39942009911865
DELTA 2 R/B(1)          
1 20453U 90008B   26201.53939843  .00090250  00000+0  53425-3 0  9993
2 20453  35.6002  11.5985 0056324  66.9760 293.6910 15.74510790946957
